start=new Date('2023-01-18T00:00:00.000Z').valueOf();
sats=[{"ARG_OF_PERICENTER":"76.5706","NORAD_CAT_ID":"47179","MEAN_MOTION_DDOT":"0.0000000000000","OBJECT_ID":"2020-088BK","RCS_SIZE":"LARGE","OBJECT_NAME":"STARLINK-1913","ELEMENT_SET_NO":"999","MEAN_MOTION_DOT":"0.00009133","ECCENTRICITY":"0.00016130","SITE":"AFETR","PERIOD":"95.593","REF_FRAME":"TEME","REV_AT_EPOCH":"11883","BSTAR":"0.00063156000000","TLE_LINE1":"1 47179U 20088BK  23017.80054225  .00009133  00000-0  63156-3 0  9995","RA_OF_ASC_NODE":"60.2120","TLE_LINE2":"2 47179  53.0552  60.2120 0001613  76.5706 283.5463 15.06379683118833","GP_ID":"223380682","MEAN_ANOMALY":"283.5463","COUNTRY_CODE":"US","TIME_SYSTEM":"UTC","CENTER_NAME":"EARTH","APOAPSIS":"548.393","SEMIMAJOR_AXIS":"6925.411","MEAN_ELEMENT_THEORY":"SGP4","INCLINATION":"53.0552","EPHEMERIS_TYPE":"0","CLASSIFICATION_TYPE":"U","PERIAPSIS":"546.159","OBJECT_TYPE":"PAYLOAD","FILE":"3753286","EPOCH":"2023-01-17T19:12:46.850400","DECAY_DATE":null,"MEAN_MOTION":"15.06379683","LAUNCH_DATE":"2020-11-25"},{"ECCENTRICITY":"0.00029770","SITE":"AFETR","MEAN_MOTION_DOT":"0.00032996","PERIOD":"95.567","REF_FRAME":"TEME","BSTAR":"0.00220040000000","TLE_LINE1":"1 47181U 20088BM  23017.30865742  .00032996  00000-0  22004-2 0  9996","REV_AT_EPOCH":"11917","ARG_OF_PERICENTER":"69.8948","NORAD_CAT_ID":"47181","RCS_SIZE":"LARGE","OBJECT_ID":"2020-088BM","MEAN_MOTION_DDOT":"0.0000000000000","ELEMENT_SET_NO":"999","OBJECT_NAME":"STARLINK-1927","FILE":"3753023","DECAY_DATE":null,"EPOCH":"2023-01-17T07:24:28.001088","OBJECT_TYPE":"PAYLOAD","CLASSIFICATION_TYPE":"U","PERIAPSIS":"543.961","LAUNCH_DATE":"2020-11-25","MEAN_MOTION":"15.06788813","MEAN_ANOMALY":"290.2361","GP_ID":"223321579","TLE_LINE2":"2 47181  53.0532  32.4149 0002977  69.8948 290.2361 15.06788813119172","RA_OF_ASC_NODE":"32.4149","SEMIMAJOR_AXIS":"6924.157","APOAPSIS":"548.083","CENTER_NAME":"EARTH","TIME_SYSTEM":"UTC","COUNTRY_CODE":"US","INCLINATION":"53.0532","MEAN_ELEMENT_THEORY":"SGP4","EPHEMERIS_TYPE":"0"},{"TLE_LINE2":"2 47350  53.0540 170.7549 0001293  87.9374 272.1763 15.06427313110163","GP_ID":"223380699","RA_OF_ASC_NODE":"170.7549","MEAN_ANOMALY":"272.1763","COUNTRY_CODE":"US","SEMIMAJOR_AXIS":"6925.265","APOAPSIS":"548.025","CENTER_NAME":"EARTH","TIME_SYSTEM":"UTC","INCLINATION":"53.0540","MEAN_ELEMENT_THEORY":"SGP4","EPHEMERIS_TYPE":"0","OBJECT_TYPE":"PAYLOAD","PERIAPSIS":"546.234","CLASSIFICATION_TYPE":"U","FILE":"3753286","EPOCH":"2023-01-17T16:18:52.910784","DECAY_DATE":null,"MEAN_MOTION":"15.06427313","LAUNCH_DATE":"2021-01-20","ARG_OF_PERICENTER":"87.9374","NORAD_CAT_ID":"47350","MEAN_MOTION_DDOT":"0.0000000000000","OBJECT_ID":"2021-005B","RCS_SIZE":"LARGE","OBJECT_NAME":"STARLINK-2011","ELEMENT_SET_NO":"999","MEAN_MOTION_DOT":"0.00005540","ECCENTRICITY":"0.00012930","SITE":"AFETR","PERIOD":"95.590","REF_FRAME":"TEME","BSTAR":"0.00039024000000","TLE_LINE1":"1 47350U 21005B   23017.67977906  .00005540  00000-0  39024-3 0  9996","REV_AT_EPOCH":"11016"},{"MEAN_ELEMENT_THEORY":"SGP4","INCLINATION":"53.0528","EPHEMERIS_TYPE":"0","RA_OF_ASC_NODE":"132.4082","GP_ID":"223321596","TLE_LINE2":"2 47351  53.0528 132.4082 0000963  86.1691 273.9409 15.06381227110667","MEAN_ANOMALY":"273.9409","COUNTRY_CODE":"US","TIME_SYSTEM":"UTC","APOAPSIS":"547.938","CENTER_NAME":"EARTH","SEMIMAJOR_AXIS":"6925.406","CLASSIFICATION_TYPE":"U","PERIAPSIS":"546.604","OBJECT_TYPE":"PAYLOAD","EPOCH":"2023-01-17T07:26:48.160896","FILE":"3753023","DECAY_DATE":null,"MEAN_MOTION":"15.06381227","LAUNCH_DATE":"2021-01-20","MEAN_MOTION_DDOT":"0.0000000000000","RCS_SIZE":"LARGE","OBJECT_ID":"2021-005C","OBJECT_NAME":"STARLINK-2017","ELEMENT_SET_NO":"999","ARG_OF_PERICENTER":"86.1691","NORAD_CAT_ID":"47351","REF_FRAME":"TEME","REV_AT_EPOCH":"11066","BSTAR":"0.00003150700000","TLE_LINE1":"1 47351U 21005C   23017.31027964  .00000188  00000-0  31507-4 0  9990","MEAN_MOTION_DOT":"0.00000188","SITE":"AFETR","ECCENTRICITY":"0.00009630","PERIOD":"95.593"},{"TIME_SYSTEM":"UTC","APOAPSIS":"547.856","CENTER_NAME":"EARTH","SEMIMAJOR_AXIS":"6925.370","COUNTRY_CODE":"US","MEAN_ANOMALY":"272.1215","RA_OF_ASC_NODE":"169.9483","TLE_LINE2":"2 47352  53.0533 169.9483 0000897  87.9877 272.1215 15.06392975110843","GP_ID":"223354757","EPHEMERIS_TYPE":"0","MEAN_ELEMENT_THEORY":"SGP4","INCLINATION":"53.0533","LAUNCH_DATE":"2021-01-20","MEAN_MOTION":"15.06392975","EPOCH":"2023-01-17T20:39:00.516960","FILE":"3753116","DECAY_DATE":null,"PERIAPSIS":"546.614","CLASSIFICATION_TYPE":"U","OBJECT_TYPE":"PAYLOAD","NORAD_CAT_ID":"47352","ARG_OF_PERICENTER":"87.9877","ELEMENT_SET_NO":"999","OBJECT_NAME":"STARLINK-2034","OBJECT_ID":"2021-005D","RCS_SIZE":"LARGE","MEAN_MOTION_DDOT":"0.0000000000000","PERIOD":"95.593","SITE":"AFETR","ECCENTRICITY":"0.00008970","MEAN_MOTION_DOT":"-0.00000109","REV_AT_EPOCH":"11084","BSTAR":"0.00001159000000","TLE_LINE1":"1 47352U 21005D   23017.86042265 -.00000109  00000-0  11590-4 0  9996","REF_FRAME":"TEME"},{"INCLINATION":"53.0525","MEAN_ELEMENT_THEORY":"SGP4","EPHEMERIS_TYPE":"0","TLE_LINE2":"2 47353  53.0525 116.3437 0001626  77.8095 282.3076 15.06381418110917","GP_ID":"223321095","RA_OF_ASC_NODE":"116.3437","MEAN_ANOMALY":"282.3076","COUNTRY_CODE":"US","APOAPSIS":"548.397","SEMIMAJOR_AXIS":"6925.406","CENTER_NAME":"EARTH","TIME_SYSTEM":"UTC","OBJECT_TYPE":"PAYLOAD","CLASSIFICATION_TYPE":"U","PERIAPSIS":"546.144","DECAY_DATE":null,"FILE":"3753023","EPOCH":"2023-01-17T13:12:30.737664","MEAN_MOTION":"15.06381418","LAUNCH_DATE":"2021-01-20","MEAN_MOTION_DDOT":"0.0000000000000","OBJECT_ID":"2021-005E","RCS_SIZE":"LARGE","OBJECT_NAME":"STARLINK-2045","ELEMENT_SET_NO":"999","ARG_OF_PERICENTER":"77.8095","NORAD_CAT_ID":"47353","REF_FRAME":"TEME","TLE_LINE1":"1 47353U 21005E   23017.55035576 -.00000436  00000-0 -10379-4 0  9998","BSTAR":"-0.00001037900000","REV_AT_EPOCH":"11091","MEAN_MOTION_DOT":"-0.00000436","SITE":"AFETR","ECCENTRICITY":"0.00016260","PERIOD":"95.593"},{"ARG_OF_PERICENTER":"95.1242","NORAD_CAT_ID":"47354","MEAN_MOTION_DDOT":"0.0000000000000","RCS_SIZE":"LARGE","OBJECT_ID":"2021-005F","OBJECT_NAME":"STARLINK-2046","ELEMENT_SET_NO":"999","MEAN_MOTION_DOT":"-0.00002200","ECCENTRICITY":"0.00012450","SITE":"AFETR","PERIOD":"95.593","REF_FRAME":"TEME","REV_AT_EPOCH":"11061","BSTAR":"-0.00012888000000","TLE_LINE1":"1 47354U 21005F   23017.43056461 -.00002200  00000-0 -12888-3 0  9999","RA_OF_ASC_NODE":"136.8575","GP_ID":"223320845","TLE_LINE2":"2 47354  53.0549 136.8575 0001245  95.1242 264.9889 15.06381939110611","MEAN_ANOMALY":"264.9889","COUNTRY_CODE":"US","TIME_SYSTEM":"UTC","APOAPSIS":"548.131","CENTER_NAME":"EARTH","SEMIMAJOR_AXIS":"6925.404","MEAN_ELEMENT_THEORY":"SGP4","INCLINATION":"53.0549","EPHEMERIS_TYPE":"0","PERIAPSIS":"546.407","CLASSIFICATION_TYPE":"U","OBJECT_TYPE":"PAYLOAD","DECAY_DATE":null,"FILE":"3753023","EPOCH":"2023-01-17T10:20:00.782304","MEAN_MOTION":"15.06381939","LAUNCH_DATE":"2021-01-20"},{"OBJECT_TYPE":"PAYLOAD","CLASSIFICATION_TYPE":"U","PERIAPSIS":"546.274","FILE":"3753286","EPOCH":"2023-01-17T15:37:48.229824","DECAY_DATE":null,"MEAN_MOTION":"15.06384938","LAUNCH_DATE":"2021-01-20","INCLINATION":"53.0536","MEAN_ELEMENT_THEORY":"SGP4","EPHEMERIS_TYPE":"0","GP_ID":"223379954","TLE_LINE2":"2 47355  53.0536 120.8648 0001423 114.3717 245.7420 15.06384938110857","RA_OF_ASC_NODE":"120.8648","MEAN_ANOMALY":"245.7420","COUNTRY_CODE":"US","APOAPSIS":"548.245","SEMIMAJOR_AXIS":"6925.395","CENTER_NAME":"EARTH","TIME_SYSTEM":"UTC","REF_FRAME":"TEME","BSTAR":"0.00208000000000","TLE_LINE1":"1 47355U 21005G   23017.65125266  .00030823  00000-0  20800-2 0  9996","REV_AT_EPOCH":"11085","MEAN_MOTION_DOT":"0.00030823","SITE":"AFETR","ECCENTRICITY":"0.00014230","PERIOD":"95.593","MEAN_MOTION_DDOT":"0.0000000000000","RCS_SIZE":"LARGE","OBJECT_ID":"2021-005G","OBJECT_NAME":"STARLINK-2047","ELEMENT_SET_NO":"999","ARG_OF_PERICENTER":"114.3717","NORAD_CAT_ID":"47355"},{"ELEMENT_SET_NO":"999","OBJECT_NAME":"STARLINK-2049","OBJECT_ID":"2021-005H","RCS_SIZE":"LARGE","MEAN_MOTION_DDOT":"0.0000000000000","NORAD_CAT_ID":"47356","ARG_OF_PERICENTER":"98.9500","TLE_LINE1":"1 47356U 21005H   23017.76367281  .00010107  00000-0  69661-3 0  9996","BSTAR":"0.00069661000000","REV_AT_EPOCH":"11059","REF_FRAME":"TEME","PERIOD":"95.593","SITE":"AFETR","ECCENTRICITY":"0.00014170","MEAN_MOTION_DOT":"0.00010107","EPHEMERIS_TYPE":"0","INCLINATION":"53.0533","MEAN_ELEMENT_THEORY":"SGP4","APOAPSIS":"548.222","SEMIMAJOR_AXIS":"6925.376","CENTER_NAME":"EARTH","TIME_SYSTEM":"UTC","COUNTRY_CODE":"US","MEAN_ANOMALY":"261.1649","GP_ID":"223380204","TLE_LINE2":"2 47356  53.0533 140.3700 0001417  98.9500 261.1649 15.06391054110594","RA_OF_ASC_NODE":"140.3700","LAUNCH_DATE":"2021-01-20","MEAN_MOTION":"15.06391054","FILE":"3753286","DECAY_DATE":null,"EPOCH":"2023-01-17T18:19:41.330784","OBJECT_TYPE":"PAYLOAD","CLASSIFICATION_TYPE":"U","PERIAPSIS":"546.260"},{"ARG_OF_PERICENTER":"87.9909","NORAD_CAT_ID":"47357","MEAN_MOTION_DDOT":"0.0000000000000","RCS_SIZE":"LARGE","OBJECT_ID":"2021-005J","OBJECT_NAME":"STARLINK-2050","ELEMENT_SET_NO":"999","MEAN_MOTION_DOT":"0.00000414","SITE":"AFETR","ECCENTRICITY":"0.00012430","PERIOD":"95.593","REF_FRAME":"TEME","REV_AT_EPOCH":"11016","BSTAR":"0.00004665600000","TLE_LINE1":"1 47357U 21005J   23017.70561436  .00000414  00000-0  46656-4 0  9999","RA_OF_ASC_NODE":"170.6418","TLE_LINE2":"2 47357  53.0541 170.6418 0001243  87.9909 272.1222 15.06394191110161","GP_ID":"223380955","MEAN_ANOMALY":"272.1222","COUNTRY_CODE":"US","TIME_SYSTEM":"UTC","APOAPSIS":"548.092","CENTER_NAME":"EARTH","SEMIMAJOR_AXIS":"6925.366","MEAN_ELEMENT_THEORY":"SGP4","INCLINATION":"53.0541","EPHEMERIS_TYPE":"0","PERIAPSIS":"546.371","CLASSIFICATION_TYPE":"U","OBJECT_TYPE":"PAYLOAD","EPOCH":"2023-01-17T16:56:05.080704","FILE":"3753286","DECAY_DATE":null,"MEAN_MOTION":"15.06394191","LAUNCH_DATE":"2021-01-20"}];
